{
  "type": "FeatureCollection",
  "features": [
    {
      "type": "Feature",
      "properties": {
        "norad_id": 54741,
        "name": "GALAXY 35 (G-35)",
        "group": "intelsat",
        "lat": 0.016268738833885247,
        "lon": 158.8280481438963,
        "alt_km": 35789.40019198353,
        "timestamp": "2025-12-09T11:33:54.468586+00:00",
        "meta_object_name": "GALAXY 35 (G-35)",
        "meta_object_id": "2022-170A",
        "meta_epoch": "2025-12-09T04:40:21.198720",
        "meta_mean_motion": 1.00271034,
        "meta_eccentricity": 0.0002656,
        "meta_inclination": 0.0241,
        "meta_ra_of_asc_node": 84.7288,
        "meta_arg_of_pericenter": 180.125,
        "meta_mean_anomaly": 150.3361,
        "meta_ephemeris_type": 0,
        "meta_classification_type": "U",
        "meta_norad_cat_id": 54741,
        "meta_element_set_no": 999,
        "meta_rev_at_epoch": 1098,
        "meta_bstar": 0,
        "meta_mean_motion_dot": -1.6e-06,
        "meta_mean_motion_ddot": 0,
        "tle_line1": "1 54741U 22170A   25343.19468980 -.00000160  00000+0  00000+0 0  9991",
        "tle_line2": "2 54741   0.0241  84.7288 0002656 180.1250 150.3361  1.00271034 10988"
      },
      "geometry": {
        "type": "Point",
        "coordinates": [
          158.8280481438963,
          0.016268738833885247
        ]
      }
    },
    {
      "type": "Feature",
      "properties": {
        "norad_id": 54742,
        "name": "GALAXY 36 (G-36)",
        "group": "intelsat",
        "lat": 0.009223734308553326,
        "lon": 162.93597530559495,
        "alt_km": 35787.609329448496,
        "timestamp": "2025-12-09T11:33:54.468597+00:00",
        "meta_object_name": "GALAXY 36 (G-36)",
        "meta_object_id": "2022-170B",
        "meta_epoch": "2025-12-09T04:04:38.821728",
        "meta_mean_motion": 1.00270728,
        "meta_eccentricity": 5.75e-05,
        "meta_inclination": 0.0082,
        "meta_ra_of_asc_node": 36.2191,
        "meta_arg_of_pericenter": 246.7942,
        "meta_mean_anomaly": 127.3103,
        "meta_ephemeris_type": 0,
        "meta_classification_type": "U",
        "meta_norad_cat_id": 54742,
        "meta_element_set_no": 999,
        "meta_rev_at_epoch": 1086,
        "meta_bstar": 0,
        "meta_mean_motion_dot": -1.83e-06,
        "meta_mean_motion_ddot": 0,
        "tle_line1": "1 54742U 22170B   25343.16989377 -.00000183  00000+0  00000+0 0  9992",
        "tle_line2": "2 54742   0.0082  36.2191 0000575 246.7942 127.3103  1.00270728 10866"
      },
      "geometry": {
        "type": "Point",
        "coordinates": [
          162.93597530559495,
          0.009223734308553326
        ]
      }
    },
    {
      "type": "Feature",
      "properties": {
        "norad_id": 57493,
        "name": "GALAXY 37 (G-37)",
        "group": "intelsat",
        "lat": 0.01778222923625904,
        "lon": 124.93055382441072,
        "alt_km": 35793.55633166499,
        "timestamp": "2025-12-09T11:33:54.468609+00:00",
        "meta_object_name": "GALAXY 37 (G-37)",
        "meta_object_id": "2023-112A",
        "meta_epoch": "2025-12-09T02:58:38.651808",
        "meta_mean_motion": 1.00271498,
        "meta_eccentricity": 0.0002343,
        "meta_inclination": 0.011,
        "meta_ra_of_asc_node": 337.5468,
        "meta_arg_of_pericenter": 285.8277,
        "meta_mean_anomaly": 92.4091,
        "meta_ephemeris_type": 0,
        "meta_classification_type": "U",
        "meta_norad_cat_id": 57493,
        "meta_element_set_no": 999,
        "meta_rev_at_epoch": 863,
        "meta_bstar": 0,
        "meta_mean_motion_dot": 5e-07,
        "meta_mean_motion_ddot": 0,
        "tle_line1": "1 57493U 23112A   25343.12405847  .00000050  00000+0  00000+0 0  9998",
        "tle_line2": "2 57493   0.0110 337.5468 0002343 285.8277  92.4091  1.00271498  8633"
      },
      "geometry": {
        "type": "Point",
        "coordinates": [
          124.93055382441072,
          0.01778222923625904
        ]
      }
    }
  ]
}